{
  "norad_id": 64766,
  "name": "STARLINK-34645",
  "history": [
    {
      "epoch": "2026-03-28T20:54:27.315936Z",
      "apogee_km": 476.22552529561926,
      "perigee_km": 474.13170030959645,
      "latitude_deg": 1.880864157057761e-05,
      "longitude_deg": 14.101817580505042,
      "height_km": 475.78503189607983,
      "semi_major_axis_km": 6853.315612802608,
      "eccentricity": 0.00015276,
      "inclination_deg": 53.1581,
      "raan_deg": 154.001,
      "arg_perigee_deg": 73.8509,
      "mean_anomaly_deg": 286.266,
      "mean_motion_rev_day": 15.3021221
    },
    {
      "epoch": "2026-03-30T04:15:31.324032Z",
      "apogee_km": 476.1315805342356,
      "perigee_km": 474.2523977254168,
      "latitude_deg": 5.076999382420445e-05,
      "longitude_deg": -103.51720281878481,
      "height_km": 475.6385337156101,
      "semi_major_axis_km": 6853.328989129826,
      "eccentricity": 0.0001371,
      "inclination_deg": 53.1593,
      "raan_deg": 147.9362,
      "arg_perigee_deg": 61.2765,
      "mean_anomaly_deg": 298.8374,
      "mean_motion_rev_day": 15.3020773
    }
  ]
}